NORAD_CAT_ID,OBJECT_NAME,OBJECT_TYPE,EPOCH,MEAN_MOTION,ECCENTRICITY,INCLINATION,RA_OF_ASC_NODE,ARG_OF_PERICENTER,MEAN_ANOMALY,BSTAR,MEAN_MOTION_DOT,MEAN_MOTION_DDOT,TLE_LINE0,TLE_LINE1,TLE_LINE2,SEMIMAJOR_AXIS,PERIOD,APOGEE,PERIGEE,DECAYED
50815.0,STARLINK-3234,PAYLOAD,2023-11-30 04:47:10,15.08844788,0.0001936,53.2189,297.336,109.2499,250.8703,0.00016917,2.406e-05,0.0,0 STARLINK-3234,1 50815U 22001N   23334.19942791  .00002406  00000-0  16917-3 0  9990,2 50815  53.2189 297.3360 0001936 109.2499 250.8703 15.08844788106300,6917.866,95.437,541.07,538.391,0.0
50815.0,STARLINK-3234,PAYLOAD,2023-12-01 03:02:35,15.08834302,0.0002084,53.2191,293.1731,122.7043,237.4151,9.4765e-05,1.22e-05,0.0,0 STARLINK-3234,1 50815U 22001N   23335.12679517  .00001220  00000-0  94765-4 0  9998,2 50815  53.2191 293.1731 0002084 122.7043 237.4151 15.08834302106443,6917.898,95.438,541.204,538.321,0.0
50815.0,STARLINK-3234,PAYLOAD,2023-12-01 06:13:21,15.08838954,0.0001684,53.2187,292.576,105.0215,255.0963,0.0002015,2.92e-05,0.0,0 STARLINK-3234,1 50815U 22001N   23335.25927527  .00002920  00000-0  20150-3 0  9993,2 50815  53.2187 292.5760 0001684 105.0215 255.0963 15.08838954105198,6917.884,95.438,540.914,538.584,0.0
50815.0,STARLINK-3234,PAYLOAD,2023-12-02 06:04:07,15.0887133,0.0001471,53.2174,288.1147,116.5609,243.5534,0.00078639,0.0001226,0.0,0 STARLINK-3234,1 50815U 22001N   23336.25286599  .00012260  00000-0  78639-3 0  9994,2 50815  53.2174 288.1147 0001471 116.5609 243.5534 15.08871330106611,6917.785,95.436,540.667,538.632,0.0
50815.0,STARLINK-3234,PAYLOAD,2023-12-03 02:44:09,15.0883141,0.0001338,53.2181,284.2493,89.8617,270.2529,-6.2311e-05,-1.279e-05,0.0,0 STARLINK-3234,1 50815U 22001N   23337.11400213 -.00001279  00000-0 -62311-4 0  9992,2 50815  53.2181 284.2493 0001338  89.8617 270.2529 15.08831410106743,6917.907,95.438,540.697,538.846,0.0
50815.0,STARLINK-3234,PAYLOAD,2023-12-03 05:54:56,15.08831449,0.0001381,53.2182,283.6545,73.5663,286.5481,-1.8098e-05,-5.76e-06,0.0,0 STARLINK-3234,1 50815U 22001N   23337.24648563 -.00000576  00000-0 -18098-4 0  9990,2 50815  53.2182 283.6545 0001381  73.5663 286.5481 15.08831449105494,6917.907,95.438,540.727,538.816,0.0
50815.0,STARLINK-3234,PAYLOAD,2023-12-04 02:34:56,15.08850644,0.0001275,53.2174,279.7905,74.4413,285.6719,3.0183e-05,1.93e-06,0.0,0 STARLINK-3234,1 50815U 22001N   23338.10759841  .00000193  00000-0  30183-4 0  9990,2 50815  53.2174 279.7905 0001275  74.4413 285.6719 15.08850644106893,6917.848,95.437,540.595,538.831,0.0
50815.0,STARLINK-3234,PAYLOAD,2023-12-04 05:45:42,15.08856504,0.0001522,53.2185,279.1934,69.6883,290.4273,0.00014397,2.005e-05,0.0,0 STARLINK-3234,1 50815U 22001N   23338.24007587  .00002005  00000-0  14397-3 0  9990,2 50815  53.2185 279.1934 0001522  69.6883 290.4273 15.08856504105645,6917.83,95.437,540.748,538.642,0.0
50815.0,STARLINK-3234,PAYLOAD,2023-12-05 02:25:43,15.08847522,0.0001561,53.22,275.3236,90.3148,269.8023,0.00027616,4.111e-05,0.0,0 STARLINK-3234,1 50815U 22001N   23339.10119841  .00004111  00000-0  27616-3 0  9991,2 50815  53.2200 275.3236 0001561  90.3148 269.8023 15.08847522107043,6917.857,95.437,540.802,538.643,0.0
50815.0,STARLINK-3234,PAYLOAD,2023-12-05 05:36:29,15.08847215,0.0001621,53.22,274.73,89.967,270.1507,0.00027019,4.016e-05,0.0,0 STARLINK-3234,1 50815U 22001N   23339.23367836  .00004016  00000-0  27019-3 0  9995,2 50815  53.2200 274.7300 0001621  89.9670 270.1507 15.08847215105790,6917.858,95.437,540.845,538.602,0.0
50815.0,STARLINK-3234,PAYLOAD,2023-12-05 19:54:57,15.08846114,0.0001959,53.2178,272.0578,76.6648,283.4563,5.8009e-05,6.35e-06,0.0,0 STARLINK-3234,1 50815U 22001N   23339.82983643  .00000635  00000-0  58009-4 0  9997,2 50815  53.2178 272.0578 0001959  76.6648 283.4563 15.08846114105880,6917.862,95.437,541.082,538.371,0.0
50815.0,STARLINK-3234,PAYLOAD,2023-12-06 05:27:16,15.08852636,0.000167,53.2187,270.2729,82.3911,277.7271,4.2056e-05,3.82e-06,0.0,0 STARLINK-3234,1 50815U 22001N   23340.22727210  .00000382  00000-0  42056-4 0  9993,2 50815  53.2187 270.2729 0001670  82.3911 277.7271 15.08852636107212,6917.842,95.437,540.862,538.551,0.0
50815.0,STARLINK-3234,PAYLOAD,2023-12-07 02:07:18,15.08838247,0.0001448,53.2185,266.4051,74.5993,285.5159,-5.7763e-05,-1.207e-05,0.0,0 STARLINK-3234,1 50815U 22001N   23341.08840279 -.00001207  00000-0 -57763-4 0  9999,2 50815  53.2185 266.4051 0001448  74.5993 285.5159 15.08838247107349,6917.886,95.438,540.752,538.749,0.0
50815.0,STARLINK-3234,PAYLOAD,2023-12-07 05:18:04,15.08839545,0.000141,53.2181,265.8138,87.087,273.0283,-5.7983e-05,-1.211e-05,0.0,0 STARLINK-3234,1 50815U 22001N   23341.22088145 -.00001211  00000-0 -57983-4 0  9990,2 50815  53.2181 265.8138 0001410  87.0870 273.0283 15.08839545106099,6917.882,95.438,540.722,538.771,0.0
50815.0,STARLINK-3234,PAYLOAD,2023-12-07 19:36:32,15.08838569,0.0001525,53.2183,263.1373,98.3719,261.7447,-7.0915e-06,-4.01e-06,0.0,0 STARLINK-3234,1 50815U 22001N   23341.81704197 -.00000401  00000-0 -70915-5 0  9998,2 50815  53.2183 263.1373 0001525  98.3719 261.7447 15.08838569106188,6917.885,95.438,540.805,538.695,0.0
50815.0,STARLINK-3234,PAYLOAD,2023-12-08 17:51:56,15.08833866,0.0001479,53.2181,258.9745,90.6966,269.4196,0.00012262,1.664e-05,0.0,0 STARLINK-3234,1 50815U 22001N   23342.74440356  .00001664  00000-0  12262-3 0  9994,2 50815  53.2181 258.9745 0001479  90.6966 269.4196 15.08833866107595,6917.899,95.438,540.787,538.741,0.0
50815.0,STARLINK-3234,PAYLOAD,2023-12-09 04:59:38,15.08840333,0.0001398,53.2173,256.8937,83.7283,276.3869,0.00011354,1.52e-05,0.0,0 STARLINK-3234,1 50815U 22001N   23343.20808083  .00001520  00000-0  11354-3 0  9993,2 50815  53.2173 256.8937 0001398  83.7283 276.3869 15.08840333106399,6917.879,95.438,540.711,538.777,0.0
50815.0,STARLINK-3234,PAYLOAD,2023-12-10 22:19:40,15.08837193,0.000146,53.2174,249.1622,85.6643,274.4516,4.1417e-06,-2.22e-06,0.0,0 STARLINK-3234,1 50815U 22001N   23344.93032570 -.00000222  00000-0  41417-5 0  9998,2 50815  53.2174 249.1622 0001460  85.6643 274.4516 15.08837193106654,6917.889,95.438,540.764,538.744,0.0
50815.0,STARLINK-3234,PAYLOAD,2023-12-11 01:30:26,15.08815588,0.0001351,53.2181,248.5644,91.716,268.3987,0.00042376,6.458e-05,0.0,0 STARLINK-3234,1 50815U 22001N   23345.06281166  .00006458  00000-0  42376-3 0  9999,2 50815  53.2181 248.5644 0001351  91.7160 268.3987 15.08815588107941,6917.955,95.439,540.755,538.885,0.0
50815.0,STARLINK-3234,PAYLOAD,2023-12-11 22:10:26,15.08844782,0.0001446,53.2172,244.7019,85.2111,274.9047,7.4917e-05,9.05e-06,0.0,0 STARLINK-3234,1 50815U 22001N   23345.92391951  .00000905  00000-0  74917-4 0  9996,2 50815  53.2172 244.7019 0001446  85.2111 274.9047 15.08844782106806,6917.866,95.437,540.731,538.73,0.0
50815.0,STARLINK-3234,PAYLOAD,2023-12-11 23:45:49,15.08846366,0.000141,53.2171,244.4101,82.8051,277.3101,8.134e-05,1.007e-05,0.0,0 STARLINK-3234,1 50815U 22001N   23345.99016095  .00001007  00000-0  81340-4 0  9998,2 50815  53.2171 244.4101 0001410  82.8051 277.3101 15.08846366108081,6917.861,95.437,540.701,538.751,0.0
50815.0,STARLINK-3234,PAYLOAD,2023-12-12 22:01:11,15.0886302,0.0001865,53.2197,240.2334,75.9231,284.1968,0.00017598,2.515e-05,0.0,0 STARLINK-3234,1 50815U 22001N   23346.91749879  .00002515  00000-0  17598-3 0  9992,2 50815  53.2197 240.2334 0001865  75.9231 284.1968 15.08863020106955,6917.81,95.436,540.965,538.385,0.0
50815.0,STARLINK-3234,PAYLOAD,2023-12-12 23:36:36,15.0884036,0.0001649,53.218,239.9454,62.5149,297.6011,-7.7205e-06,-4.11e-06,0.0,0 STARLINK-3234,1 50815U 22001N   23346.98375609 -.00000411  00000-0 -77205-5 0  9993,2 50815  53.2180 239.9454 0001649  62.5149 297.6011 15.08840360106966,6917.879,95.438,540.885,538.604,0.0
50815.0,STARLINK-3234,PAYLOAD,2023-12-13 20:16:37,15.08834857,0.0001209,53.2157,236.0815,95.6773,264.4357,-0.00013655,-2.46e-05,0.0,0 STARLINK-3234,1 50815U 22001N   23347.84488193 -.00002460  00000-0 -13655-3 0  9995,2 50815  53.2157 236.0815 0001209  95.6773 264.4357 15.08834857108366,6917.896,95.438,540.597,538.925,0.0
50815.0,STARLINK-3234,PAYLOAD,2023-12-13 21:52:00,15.08835483,0.0001186,53.216,235.784,104.4675,255.6449,-0.00014844,-2.649e-05,0.0,0 STARLINK-3234,1 50815U 22001N   23347.91112154 -.00002649  00000-0 -14844-3 0  9994,2 50815  53.2160 235.7840 0001186 104.4675 255.6449 15.08835483107109,6917.894,95.438,540.58,538.939,0.0
50815.0,STARLINK-3234,PAYLOAD,2023-12-14 20:07:24,15.08831452,0.0001354,53.2164,231.6172,110.2063,249.9075,6.1955e-05,6.98e-06,0.0,0 STARLINK-3234,1 50815U 22001N   23348.83847719  .00000698  00000-0  61955-4 0  9994,2 50815  53.2164 231.6172 0001354 110.2063 249.9075 15.08831452108518,6917.907,95.438,540.708,538.835,0.0
50815.0,STARLINK-3234,PAYLOAD,2023-12-14 21:42:47,15.08831316,0.000127,53.2161,231.3225,93.2956,266.8181,0.00010759,1.424e-05,0.0,0 STARLINK-3234,1 50815U 22001N   23348.90471710  .00001424  00000-0  10759-3 0  9999,2 50815  53.2161 231.3225 0001270  93.2956 266.8181 15.08831316107254,6917.907,95.438,540.651,538.893,0.0
50815.0,STARLINK-3234,PAYLOAD,2023-12-14 23:18:10,15.08836686,0.0001288,53.2162,231.0244,98.4453,261.6685,0.00017121,2.438e-05,0.0,0 STARLINK-3234,1 50815U 22001N   23348.97095250  .00002438  00000-0  17121-3 0  9993,2 50815  53.2162 231.0244 0001288  98.4453 261.6685 15.08836686108530,6917.891,95.438,540.647,538.864,0.0
50815.0,STARLINK-3234,PAYLOAD,2023-12-15 19:58:12,15.08826572,0.0001241,53.2166,227.1557,79.4223,280.6908,5.1073e-05,5.25e-06,0.0,0 STARLINK-3234,1 50815U 22001N   23349.83209113  .00000525  00000-0  51073-4 0  9994,2 50815  53.2166 227.1557 0001241  79.4223 280.6908 15.08826572108666,6917.921,95.438,540.645,538.928,0.0
50815.0,STARLINK-3234,PAYLOAD,2023-12-15 21:33:35,15.08826272,0.0001256,53.2173,226.8583,72.7702,287.3427,5.5912e-05,6.02e-06,0.0,0 STARLINK-3234,1 50815U 22001N   23349.89833197  .00000602  00000-0  55912-4 0  9997,2 50815  53.2173 226.8583 0001256  72.7702 287.3427 15.08826272107401,6917.922,95.438,540.656,538.918,0.0
